{"type": "FeatureCollection", "features": [ {"type": "Feature", "properties": {"norad_id": 45358, "name": "COSMOS 2545 (760)", "group": "gnss", "lat": -48.73966665158598, "lon": -73.75280721467476, "alt_km": 19118.14832536298, "timestamp": "2025-12-04T09:47:37.765407+00:00", "meta": {"OBJECT_NAME": "COSMOS 2545 (760)", "OBJECT_ID": "2020-018A", "EPOCH": "2025-12-01T04:43:25.038912", "MEAN_MOTION": 2.13102323, "ECCENTRICITY": 0.00119194, "INCLINATION": 64.4762, "RA_OF_ASC_NODE": 319.3749, "ARG_OF_PERICENTER": 248.338, "MEAN_ANOMALY": 111.5456, "EPHEMERIS_TYPE": 0, "CLASSIFICATION_TYPE": "U", "NORAD_CAT_ID": 45358, "ELEMENT_SET_NO": 999, "REV_AT_EPOCH": 4444, "BSTAR": 0, "MEAN_MOTION_DOT": -2.8e-07, "MEAN_MOTION_DDOT": 0}, "tle": {"line1": "1 45358U 20018A   25335.19681758 -.00000028  00000+0  00000+0 0  9998", "line2": "2 45358  64.4762 319.3749 0011919 248.3380 111.5456  2.13102323 44447"}}, "geometry": {"type": "Point", "coordinates": [-73.75280721467476, -48.73966665158598]}}, {"type": "Feature", "properties": {"norad_id": 45807, "name": "BEIDOU-3 G3 (C61)", "group": "gnss", "lat": -1.9574033925799668, "lon": -29.178072420103778, "alt_km": 35771.92615486819, "timestamp": "2025-12-04T09:47:37.765421+00:00", "meta": {"OBJECT_NAME": "BEIDOU-3 G3 (C61)", "OBJECT_ID": "2020-040A", "EPOCH": "2025-12-03T19:25:06.201984", "MEAN_MOTION": 1.00266369, "ECCENTRICITY": 0.00050172, "INCLINATION": 1.9679, "RA_OF_ASC_NODE": 66.532, "ARG_OF_PERICENTER": 304.61, "MEAN_ANOMALY": 103.5286, "EPHEMERIS_TYPE": 0, "CLASSIFICATION_TYPE": "U", "NORAD_CAT_ID": 45807, "ELEMENT_SET_NO": 999, "REV_AT_EPOCH": 2011, "BSTAR": 0, "MEAN_MOTION_DOT": -3.37e-06, "MEAN_MOTION_DDOT": 0}, "tle": {"line1": "1 45807U 20040A   25337.80909956 -.00000337  00000+0  00000+0 0  9998", "line2": "2 45807   1.9679  66.5320 0005017 304.6100 103.5286  1.00266369 20119"}}, "geometry": {"type": "Point", "coordinates": [-29.178072420103778, -1.9574033925799668]}}, {"type": "Feature", "properties": {"norad_id": 45854, "name": "GPS BIII-3  (PRN 23)", "group": "gnss", "lat": 56.50017670840844, "lon": 122.92874934072354, "alt_km": 20243.114284271327, "timestamp": "2025-12-04T09:47:37.765434+00:00", "meta": {"OBJECT_NAME": "GPS BIII-3  (PRN 23)", "OBJECT_ID": "2020-041A", "EPOCH": "2025-12-03T06:48:38.769120", "MEAN_MOTION": 2.00561684, "ECCENTRICITY": 0.0060262, "INCLINATION": 56.5402, "RA_OF_ASC_NODE": 36.5545, "ARG_OF_PERICENTER": 203.0015, "MEAN_ANOMALY": 153.8862, "EPHEMERIS_TYPE": 0, "CLASSIFICATION_TYPE": "U", "NORAD_CAT_ID": 45854, "ELEMENT_SET_NO": 999, "REV_AT_EPOCH": 4010, "BSTAR": 0, "MEAN_MOTION_DOT": -6.6e-07, "MEAN_MOTION_DDOT": 0}, "tle": {"line1": "1 45854U 20041A   25337.28378205 -.00000066  00000+0  00000+0 0  9999", "line2": "2 45854  56.5402  36.5545 0060262 203.0015 153.8862  2.00561684 40105"}}, "geometry": {"type": "Point", "coordinates": [122.92874934072354, 56.50017670840844]}}, {"type": "Feature", "properties": {"norad_id": 46114, "name": "GALAXY 30 (WAAS/PRN 135)", "group": "gnss", "lat": 0.029746310384825666, "lon": 95.37223530207034, "alt_km": 35795.44620391155, "timestamp": "2025-12-04T09:47:37.765446+00:00", "meta": {"OBJECT_NAME": "GALAXY 30 (WAAS/PRN 135)", "OBJECT_ID": "2020-056C", "EPOCH": "2025-12-03T23:26:07.489248", "MEAN_MOTION": 1.00272904, "ECCENTRICITY": 0.0002471, "INCLINATION": 0.0156, "RA_OF_ASC_NODE": 320.1837, "ARG_OF_PERICENTER": 293.1687, "MEAN_ANOMALY": 46.2489, "EPHEMERIS_TYPE": 0, "CLASSIFICATION_TYPE": "U", "NORAD_CAT_ID": 46114, "ELEMENT_SET_NO": 999, "REV_AT_EPOCH": 1933, "BSTAR": 0, "MEAN_MOTION_DOT": 5.3e-07, "MEAN_MOTION_DDOT": 0}, "tle": {"line1": "1 46114U 20056C   25337.97647557  .00000053  00000+0  00000+0 0  9995", "line2": "2 46114   0.0156 320.1837 0002471 293.1687  46.2489  1.00272904 19338"}}, "geometry": {"type": "Point", "coordinates": [95.37223530207034, 0.029746310384825666]}}, {"type": "Feature", "properties": {"norad_id": 46805, "name": "COSMOS 2547 (705K)", "group": "gnss", "lat": 18.658120528950537, "lon": 9.745347875167422, "alt_km": 19122.696812681865, "timestamp": "2025-12-04T09:47:37.765457+00:00", "meta": {"OBJECT_NAME": "COSMOS 2547 (705K)", "OBJECT_ID": "2020-075A", "EPOCH": "2025-11-30T21:58:22.930752", "MEAN_MOTION": 2.13099889, "ECCENTRICITY": 0.00063143, "INCLINATION": 64.5957, "RA_OF_ASC_NODE": 199.0914, "ARG_OF_PERICENTER": 229.6069, "MEAN_ANOMALY": 130.4292, "EPHEMERIS_TYPE": 0, "CLASSIFICATION_TYPE": "U", "NORAD_CAT_ID": 46805, "ELEMENT_SET_NO": 999, "REV_AT_EPOCH": 3968, "BSTAR": 0, "MEAN_MOTION_DOT": 9.8e-07, "MEAN_MOTION_DDOT": 0}, "tle": {"line1": "1 46805U 20075A   25334.91554318  .00000098  00000+0  00000+0 0  9995", "line2": "2 46805  64.5957 199.0914 0006314 229.6069 130.4292  2.13099889 39688"}}, "geometry": {"type": "Point", "coordinates": [9.745347875167422, 18.658120528950537]}}, {"type": "Feature", "properties": {"norad_id": 46826, "name": "GPS BIII-4  (PRN 14)", "group": "gnss", "lat": 43.879487637024766, "lon": -97.04959077088769, "alt_km": 20316.162670565926, "timestamp": "2025-12-04T09:47:37.765468+00:00", "meta": {"OBJECT_NAME": "GPS BIII-4  (PRN 14)", "OBJECT_ID": "2020-078A", "EPOCH": "2025-11-12T03:01:29.190720", "MEAN_MOTION": 2.00567032, "ECCENTRICITY": 0.0063911, "INCLINATION": 54.0223, "RA_OF_ASC_NODE": 219.5836, "ARG_OF_PERICENTER": 203.4986, "MEAN_ANOMALY": 326.7754, "EPHEMERIS_TYPE": 0, "CLASSIFICATION_TYPE": "U", "NORAD_CAT_ID": 46826, "ELEMENT_SET_NO": 999, "REV_AT_EPOCH": 3715, "BSTAR": 0, "MEAN_MOTION_DOT": -3.4e-07, "MEAN_MOTION_DDOT": 0}, "tle": {"line1": "1 46826U 20078A   25316.12603230 -.00000034  00000+0  00000+0 0  9993", "line2": "2 46826  54.0223 219.5836 0063911 203.4986 326.7754  2.00567032 37155"}}, "geometry": {"type": "Point", "coordinates": [-97.04959077088769, 43.879487637024766]}}, {"type": "Feature", "properties": {"norad_id": 48859, "name": "GPS BIII-5  (PRN 11)", "group": "gnss", "lat": -48.27341612932637, "lon": -148.61606361133386, "alt_km": 20124.38017147439, "timestamp": "2025-12-04T09:47:37.765480+00:00", "meta": {"OBJECT_NAME": "GPS BIII-5  (PRN 11)", "OBJECT_ID": "2021-054A", "EPOCH": "2025-11-30T17:12:22.002912", "MEAN_MOTION": 2.00553932, "ECCENTRICITY": 0.0024653, "INCLINATION": 55.2606, "RA_OF_ASC_NODE": 340.4377, "ARG_OF_PERICENTER": 232.9477, "MEAN_ANOMALY": 227.2059, "EPHEMERIS_TYPE": 0, "CLASSIFICATION_TYPE": "U", "NORAD_CAT_ID": 48859, "ELEMENT_SET_NO": 999, "REV_AT_EPOCH": 3277, "BSTAR": 0, "MEAN_MOTION_DOT": -5.5e-07, "MEAN_MOTION_DDOT": 0}, "tle": {"line1": "1 48859U 21054A   25334.71692133 -.00000055  00000+0  00000+0 0  9994", "line2": "2 48859  55.2606 340.4377 0024653 232.9477 227.2059  2.00553932 32777"}}, "geometry": {"type": "Point", "coordinates": [-148.61606361133386, -48.27341612932637]}}, {"type": "Feature", "properties": {"norad_id": 49336, "name": "QZS-1R (QZSS/PRN 196)", "group": "gnss", "lat": -36.99871346903817, "lon": -3.123016304752242, "alt_km": 32633.163240803962, "timestamp": "2025-12-04T09:47:37.765491+00:00", "meta": {"OBJECT_NAME": "QZS-1R (QZSS/PRN 196)", "OBJECT_ID": "2021-096A", "EPOCH": "2025-12-01T04:08:48.475392", "MEAN_MOTION": 1.0026089, "ECCENTRICITY": 0.0753298, "INCLINATION": 37.0524, "RA_OF_ASC_NODE": 82.5332, "ARG_OF_PERICENTER": 271.0716, "MEAN_ANOMALY": 274.2635, "EPHEMERIS_TYPE": 0, "CLASSIFICATION_TYPE": "U", "NORAD_CAT_ID": 49336, "ELEMENT_SET_NO": 999, "REV_AT_EPOCH": 1502, "BSTAR": 0, "MEAN_MOTION_DOT": -2.17e-06, "MEAN_MOTION_DDOT": 0}, "tle": {"line1": "1 49336U 21096A   25335.17278328 -.00000217  00000+0  00000+0 0  9998", "line2": "2 49336  37.0524  82.5332 0753298 271.0716 274.2635  1.00260890 15022"}}, "geometry": {"type": "Point", "coordinates": [-3.123016304752242, -36.99871346903817]}}, {"type": "Feature", "properties": {"norad_id": 49809, "name": "GSAT0223 (GALILEO 27)", "group": "gnss", "lat": 55.954287284946716, "lon": 94.41641632406481, "alt_km": 23227.615121225175, "timestamp": "2025-12-04T09:47:37.765503+00:00", "meta": {"OBJECT_NAME": "GSAT0223 (GALILEO 27)", "OBJECT_ID": "2021-116A", "EPOCH": "2025-12-01T07:17:38.669856", "MEAN_MOTION": 1.70475545, "ECCENTRICITY": 0.00047526, "INCLINATION": 57.2221, "RA_OF_ASC_NODE": 347.0231, "ARG_OF_PERICENTER": 247.908, "MEAN_ANOMALY": 106.7158, "EPHEMERIS_TYPE": 0, "CLASSIFICATION_TYPE": "U", "NORAD_CAT_ID": 49809, "ELEMENT_SET_NO": 999, "REV_AT_EPOCH": 2480, "BSTAR": 0, "MEAN_MOTION_DOT": -5.9e-07, "MEAN_MOTION_DDOT": 0}, "tle": {"line1": "1 49809U 21116A   25335.30391979 -.00000059  00000+0  00000+0 0  9993", "line2": "2 49809  57.2221 347.0231 0004752 247.9080 106.7158  1.70475545 24809"}}, "geometry": {"type": "Point", "coordinates": [94.41641632406481, 55.954287284946716]}}, {"type": "Feature", "properties": {"norad_id": 49810, "name": "GSAT0224 (GALILEO 28)", "group": "gnss", "lat": -26.67707454209963, "lon": -174.16340281233414, "alt_km": 23216.08937284112, "timestamp": "2025-12-04T09:47:37.765514+00:00", "meta": {"OBJECT_NAME": "GSAT0224 (GALILEO 28)", "OBJECT_ID": "2021-116B", "EPOCH": "2025-12-01T10:08:38.707008", "MEAN_MOTION": 1.70475584, "ECCENTRICITY": 0.00040435, "INCLINATION": 57.2228, "RA_OF_ASC_NODE": 347.0184, "ARG_OF_PERICENTER": 250.3752, "MEAN_ANOMALY": 289.7186, "EPHEMERIS_TYPE": 0, "CLASSIFICATION_TYPE": "U", "NORAD_CAT_ID": 49810, "ELEMENT_SET_NO": 999, "REV_AT_EPOCH": 2483, "BSTAR": 0, "MEAN_MOTION_DOT": -5.9e-07, "MEAN_MOTION_DDOT": 0}, "tle": {"line1": "1 49810U 21116B   25335.42267022 -.00000059  00000+0  00000+0 0  9999", "line2": "2 49810  57.2228 347.0184 0004043 250.3752 289.7186  1.70475584 24831"}}, "geometry": {"type": "Point", "coordinates": [-174.16340281233414, -26.67707454209963]}}]}